{"type": "FeatureCollection", "features": [ {"type": "Feature", "properties": {"norad_id": 41836, "name": "HIMAWARI-9", "group": "weather", "lat": 0.023419360054267247, "lon": 113.59897042604122, "alt_km": 35792.199115145995, "timestamp": "2025-12-09T16:56:36.222530+00:00", "meta": {"OBJECT_NAME": "HIMAWARI-9", "OBJECT_ID": "2016-064A", "EPOCH": "2025-12-09T10:49:08.509152", "MEAN_MOTION": 1.0026858, "ECCENTRICITY": 0.0001389, "INCLINATION": 0.0237, "RA_OF_ASC_NODE": 73.7474, "ARG_OF_PERICENTER": 191.8804, "MEAN_ANOMALY": 115.8679, "EPHEMERIS_TYPE": 0, "CLASSIFICATION_TYPE": "U", "NORAD_CAT_ID": 41836, "ELEMENT_SET_NO": 999, "REV_AT_EPOCH": 3330, "BSTAR": 0, "MEAN_MOTION_DOT": -2.73e-06, "MEAN_MOTION_DDOT": 0}, "tle": {"line1": "1 41836U 16064A   25343.45079293 -.00000273  00000+0  00000+0 0  9996", "line2": "2 41836   0.0237  73.7474 0001389 191.8804 115.8679  1.00268580 33306"}}, "geometry": {"type": "Point", "coordinates": [113.59897042604122, 0.023419360054267247]}}, {"type": "Feature", "properties": {"norad_id": 41866, "name": "GOES 16", "group": "weather", "lat": 0.03026347805265649, "lon": -131.85492890530685, "alt_km": 35775.27270181132, "timestamp": "2025-12-09T16:56:36.222543+00:00", "meta": {"OBJECT_NAME": "GOES 16", "OBJECT_ID": "2016-071A", "EPOCH": "2025-12-09T12:17:01.093344", "MEAN_MOTION": 1.0026869, "ECCENTRICITY": 0.0003266, "INCLINATION": 0.0634, "RA_OF_ASC_NODE": 105.9696, "ARG_OF_PERICENTER": 154.5939, "MEAN_ANOMALY": 257.5193, "EPHEMERIS_TYPE": 0, "CLASSIFICATION_TYPE": "U", "NORAD_CAT_ID": 41866, "ELEMENT_SET_NO": 999, "REV_AT_EPOCH": 3320, "BSTAR": 0, "MEAN_MOTION_DOT": -8.8e-07, "MEAN_MOTION_DDOT": 0}, "tle": {"line1": "1 41866U 16071A   25343.51181821 -.00000088  00000+0  00000+0 0  9999", "line2": "2 41866   0.0634 105.9696 0003266 154.5939 257.5193  1.00268690 33201"}}, "geometry": {"type": "Point", "coordinates": [-131.85492890530685, 0.03026347805265649]}}, {"type": "Feature", "properties": {"norad_id": 41882, "name": "FENGYUN 4A", "group": "weather", "lat": 0.471711555366578, "lon": 96.63873639249034, "alt_km": 35798.278756292326, "timestamp": "2025-12-09T16:56:36.222555+00:00", "meta": {"OBJECT_NAME": "FENGYUN 4A", "OBJECT_ID": "2016-077A", "EPOCH": "2025-12-08T17:16:38.775936", "MEAN_MOTION": 1.00275455, "ECCENTRICITY": 0.00049335, "INCLINATION": 1.839, "RA_OF_ASC_NODE": 82.4323, "ARG_OF_PERICENTER": 143.079, "MEAN_ANOMALY": 235.2066, "EPHEMERIS_TYPE": 0, "CLASSIFICATION_TYPE": "U", "NORAD_CAT_ID": 41882, "ELEMENT_SET_NO": 999, "REV_AT_EPOCH": 3302, "BSTAR": 0, "MEAN_MOTION_DOT": -3.55e-06, "MEAN_MOTION_DDOT": 0}, "tle": {"line1": "1 41882U 16077A   25342.71989324 -.00000355  00000+0  00000+0 0  9995", "line2": "2 41882   1.8390  82.4323 0004933 143.0790 235.2066  1.00275455 33022"}}, "geometry": {"type": "Point", "coordinates": [96.63873639249034, 0.471711555366578]}}, {"type": "Feature", "properties": {"norad_id": 41884, "name": "CYGFM05", "group": "weather", "lat": -4.541040064423951, "lon": 60.41866895289326, "alt_km": 429.9190675457403, "timestamp": "2025-12-09T16:56:36.222568+00:00", "meta": {"OBJECT_NAME": "CYGFM05", "OBJECT_ID": "2016-078A", "EPOCH": "2025-12-09T12:19:57.650880", "MEAN_MOTION": 15.47451698, "ECCENTRICITY": 0.0009701, "INCLINATION": 34.9597, "RA_OF_ASC_NODE": 68.2006, "ARG_OF_PERICENTER": 153.2324, "MEAN_ANOMALY": 206.89, "EPHEMERIS_TYPE": 0, "CLASSIFICATION_TYPE": "U", "NORAD_CAT_ID": 41884, "ELEMENT_SET_NO": 999, "REV_AT_EPOCH": 49926, "BSTAR": 0.0005062, "MEAN_MOTION_DOT": 0.00026846, "MEAN_MOTION_DDOT": 0}, "tle": {"line1": "1 41884U 16078A   25343.51386170  .00026846  00000+0  50620-3 0  9996", "line2": "2 41884  34.9597  68.2006 0009701 153.2324 206.8900 15.47451698499268"}}, "geometry": {"type": "Point", "coordinates": [60.41866895289326, -4.541040064423951]}}, {"type": "Feature", "properties": {"norad_id": 41885, "name": "CYGFM04", "group": "weather", "lat": -12.314266937789784, "lon": -119.9662524411334, "alt_km": 410.7505826141023, "timestamp": "2025-12-09T16:56:36.222579+00:00", "meta": {"OBJECT_NAME": "CYGFM04", "OBJECT_ID": "2016-078B", "EPOCH": "2025-12-09T11:26:25.929600", "MEAN_MOTION": 15.50147647, "ECCENTRICITY": 0.0009052, "INCLINATION": 34.9355, "RA_OF_ASC_NODE": 43.3137, "ARG_OF_PERICENTER": 181.434, "MEAN_ANOMALY": 178.6357, "EPHEMERIS_TYPE": 0, "CLASSIFICATION_TYPE": "U", "NORAD_CAT_ID": 41885, "ELEMENT_SET_NO": 999, "REV_AT_EPOCH": 49943, "BSTAR": 0.00050977, "MEAN_MOTION_DOT": 0.00029737, "MEAN_MOTION_DDOT": 0}, "tle": {"line1": "1 41885U 16078B   25343.47668900  .00029737  00000+0  50977-3 0  9993", "line2": "2 41885  34.9355  43.3137 0009052 181.4340 178.6357 15.50147647499431"}}, "geometry": {"type": "Point", "coordinates": [-119.9662524411334, -12.314266937789784]}}, {"type": "Feature", "properties": {"norad_id": 41886, "name": "CYGFM02", "group": "weather", "lat": -11.222796775897525, "lon": -123.31632179889434, "alt_km": 405.5044420471977, "timestamp": "2025-12-09T16:56:36.222590+00:00", "meta": {"OBJECT_NAME": "CYGFM02", "OBJECT_ID": "2016-078C", "EPOCH": "2025-12-09T11:27:14.388768", "MEAN_MOTION": 15.51512579, "ECCENTRICITY": 0.0010744, "INCLINATION": 34.9443, "RA_OF_ASC_NODE": 41.678, "ARG_OF_PERICENTER": 180.8999, "MEAN_ANOMALY": 179.1705, "EPHEMERIS_TYPE": 0, "CLASSIFICATION_TYPE": "U", "NORAD_CAT_ID": 41886, "ELEMENT_SET_NO": 999, "REV_AT_EPOCH": 49956, "BSTAR": 0.00051991, "MEAN_MOTION_DOT": 0.00031877, "MEAN_MOTION_DDOT": 0}, "tle": {"line1": "1 41886U 16078C   25343.47724987  .00031877  00000+0  51991-3 0  9997", "line2": "2 41886  34.9443  41.6780 0010744 180.8999 179.1705 15.51512579499566"}}, "geometry": {"type": "Point", "coordinates": [-123.31632179889434, -11.222796775897525]}}, {"type": "Feature", "properties": {"norad_id": 41887, "name": "CYGFM01", "group": "weather", "lat": 16.570455160444606, "lon": 94.54111172428543, "alt_km": 421.8022609294776, "timestamp": "2025-12-09T16:56:36.222601+00:00", "meta": {"OBJECT_NAME": "CYGFM01", "OBJECT_ID": "2016-078D", "EPOCH": "2025-12-09T10:37:25.878432", "MEAN_MOTION": 15.48020777, "ECCENTRICITY": 0.0009261, "INCLINATION": 34.9427, "RA_OF_ASC_NODE": 71.0385, "ARG_OF_PERICENTER": 144.2628, "MEAN_ANOMALY": 215.8715, "EPHEMERIS_TYPE": 0, "CLASSIFICATION_TYPE": "U", "NORAD_CAT_ID": 41887, "ELEMENT_SET_NO": 999, "REV_AT_EPOCH": 49919, "BSTAR": 0.00050597, "MEAN_MOTION_DOT": 0.00027371, "MEAN_MOTION_DDOT": 0}, "tle": {"line1": "1 41887U 16078D   25343.44266063  .00027371  00000+0  50597-3 0  9996", "line2": "2 41887  34.9427  71.0385 0009261 144.2628 215.8715 15.48020777499190"}}, "geometry": {"type": "Point", "coordinates": [94.54111172428543, 16.570455160444606]}}, {"type": "Feature", "properties": {"norad_id": 41888, "name": "CYGFM08", "group": "weather", "lat": 31.29348542324402, "lon": 112.85622567112917, "alt_km": 415.19304474365435, "timestamp": "2025-12-09T16:56:36.222612+00:00", "meta": {"OBJECT_NAME": "CYGFM08", "OBJECT_ID": "2016-078E", "EPOCH": "2025-12-09T12:01:25.449600", "MEAN_MOTION": 15.49220631, "ECCENTRICITY": 0.0011132, "INCLINATION": 34.9463, "RA_OF_ASC_NODE": 53.6864, "ARG_OF_PERICENTER": 169.3158, "MEAN_ANOMALY": 190.7802, "EPHEMERIS_TYPE": 0, "CLASSIFICATION_TYPE": "U", "NORAD_CAT_ID": 41888, "ELEMENT_SET_NO": 999, "REV_AT_EPOCH": 49943, "BSTAR": 0.00051656, "MEAN_MOTION_DOT": 0.0002918, "MEAN_MOTION_DDOT": 0}, "tle": {"line1": "1 41888U 16078E   25343.50098900  .00029180  00000+0  51656-3 0  9994", "line2": "2 41888  34.9463  53.6864 0011132 169.3158 190.7802 15.49220631499432"}}, "geometry": {"type": "Point", "coordinates": [112.85622567112917, 31.29348542324402]}}, {"type": "Feature", "properties": {"norad_id": 41890, "name": "CYGFM07", "group": "weather", "lat": 24.55220223848, "lon": 82.19688597154354, "alt_km": 417.6454367038523, "timestamp": "2025-12-09T16:56:36.222624+00:00", "meta": {"OBJECT_NAME": "CYGFM07", "OBJECT_ID": "2016-078G", "EPOCH": "2025-12-09T12:06:19.538784", "MEAN_MOTION": 15.49796907, "ECCENTRICITY": 0.0009543, "INCLINATION": 34.948, "RA_OF_ASC_NODE": 42.6632, "ARG_OF_PERICENTER": 187.1245, "MEAN_ANOMALY": 172.9342, "EPHEMERIS_TYPE": 0, "CLASSIFICATION_TYPE": "U", "NORAD_CAT_ID": 41890, "ELEMENT_SET_NO": 999, "REV_AT_EPOCH": 49945, "BSTAR": 0.00051284, "MEAN_MOTION_DOT": 0.0002955, "MEAN_MOTION_DDOT": 0}, "tle": {"line1": "1 41890U 16078G   25343.50439281  .00029550  00000+0  51284-3 0  9996", "line2": "2 41890  34.9480  42.6632 0009543 187.1245 172.9342 15.49796907499450"}}, "geometry": {"type": "Point", "coordinates": [82.19688597154354, 24.55220223848]}}, {"type": "Feature", "properties": {"norad_id": 41891, "name": "CYGFM03", "group": "weather", "lat": -30.54265285069148, "lon": -79.06443769061927, "alt_km": 417.0178715229267, "timestamp": "2025-12-09T16:56:36.222634+00:00", "meta": {"OBJECT_NAME": "CYGFM03", "OBJECT_ID": "2016-078H", "EPOCH": "2025-12-09T11:15:51.446016", "MEAN_MOTION": 15.49696079, "ECCENTRICITY": 0.0008842, "INCLINATION": 34.9436, "RA_OF_ASC_NODE": 44.8093, "ARG_OF_PERICENTER": 173.9116, "MEAN_ANOMALY": 186.1714, "EPHEMERIS_TYPE": 0, "CLASSIFICATION_TYPE": "U", "NORAD_CAT_ID": 41891, "ELEMENT_SET_NO": 999, "REV_AT_EPOCH": 49942, "BSTAR": 0.00049584, "MEAN_MOTION_DOT": 0.00028455, "MEAN_MOTION_DDOT": 0}, "tle": {"line1": "1 41891U 16078H   25343.46934544  .00028455  00000+0  49584-3 0  9997", "line2": "2 41891  34.9436  44.8093 0008842 173.9116 186.1714 15.49696079499424"}}, "geometry": {"type": "Point", "coordinates": [-79.06443769061927, -30.54265285069148]}}]}